[{"OBJECT_NAME":"STARLINK-31206","OBJECT_ID":"2024-038F","EPOCH":"2026-03-09T09:54:57.307392","MEAN_MOTION":15.2757484,"ECCENTRICITY":4.644e-5,"INCLINATION":42.9983,"RA_OF_ASC_NODE":323.5845,"ARG_OF_PERICENTER":349.5799,"MEAN_ANOMALY":10.5043,"EPHEMERIS_TYPE":0,"CLASSIFICATION_TYPE":"U","NORAD_CAT_ID":59028,"ELEMENT_SET_NO":999,"REV_AT_EPOCH":11548,"BSTAR":-1.4306972e-5,"MEAN_MOTION_DOT":-6.55e-6,"MEAN_MOTION_DDOT":0},{"OBJECT_NAME":"FLOCK 4G-5","OBJECT_ID":"2025-009BG","EPOCH":"2026-03-09T10:57:11.608704","MEAN_MOTION":15.28679529,"ECCENTRICITY":0.00020946,"INCLINATION":97.4058,"RA_OF_ASC_NODE":151.2478,"ARG_OF_PERICENTER":314.5072,"MEAN_ANOMALY":45.5996,"EPHEMERIS_TYPE":0,"CLASSIFICATION_TYPE":"U","NORAD_CAT_ID":62663,"ELEMENT_SET_NO":999,"REV_AT_EPOCH":6369,"BSTAR":0.00040688068,"MEAN_MOTION_DOT":0.00011278,"MEAN_MOTION_DDOT":0}]
